ASTROCAST-0401          
1 55110U 23001DF  26068.71172895  .00009750  00000+0  37868-3 0  9995
2 55110  97.5547 160.5206 0008142 188.4231 171.6872 15.26258462176022
STARLINK-31833          
1 59733U 24090D   26068.33291212  .00007666  00000+0  28787-3 0  9996
2 59733  42.9981 185.6756 0000965 272.3571  87.7170 15.27570677103389
