[{"OBJECT_NAME":"ASTROCAST-0401","OBJECT_ID":"2023-001DF","EPOCH":"2026-03-09T17:04:53.382144","MEAN_MOTION":15.26258462,"ECCENTRICITY":0.00081423,"INCLINATION":97.5547,"RA_OF_ASC_NODE":160.5206,"ARG_OF_PERICENTER":188.4231,"MEAN_ANOMALY":171.6872,"EPHEMERIS_TYPE":0,"CLASSIFICATION_TYPE":"U","NORAD_CAT_ID":55110,"ELEMENT_SET_NO":999,"REV_AT_EPOCH":17602,"BSTAR":0.00037868349,"MEAN_MOTION_DOT":9.75e-5,"MEAN_MOTION_DDOT":0},{"OBJECT_NAME":"STARLINK-31833","OBJECT_ID":"2024-090D","EPOCH":"2026-03-09T07:59:23.607168","MEAN_MOTION":15.27570677,"ECCENTRICITY":9.651e-5,"INCLINATION":42.9981,"RA_OF_ASC_NODE":185.6756,"ARG_OF_PERICENTER":272.3571,"MEAN_ANOMALY":87.717,"EPHEMERIS_TYPE":0,"CLASSIFICATION_TYPE":"U","NORAD_CAT_ID":59733,"ELEMENT_SET_NO":999,"REV_AT_EPOCH":10338,"BSTAR":0.00028786771,"MEAN_MOTION_DOT":7.666e-5,"MEAN_MOTION_DDOT":0}]
